restaurantID,linkNumber,cityCode,restaurantName,restaurantRating,openingTime,closingTime,restaurantAddress,latitude,longitude,restaurantImage,city
f0,0,f,Muhammadi Nehari D Ground,3.8/5 Stars,8:00 AM, 11:30 pm,"D Ground, Near Meezan Bank, Kohinoor chowk Faisalabad-38000, 38000 Faisalabad",31.412012,73.112979,https://images.deliveryhero.io/image/fd-pk/LH/t3pb-hero.jpg,Faisalabad
f2,2,f,Bangali Lassi & Milk Shake - Clock Tower,3.9/5 Stars,11:00 AM, 11:59 pm,"Near TCS Office Clock Tower Faisalabad, 38000 Faisalabad",31.4187454,73.0791032,https://images.deliveryhero.io/image/fd-pk/LH/h4ck-hero.jpg,Faisalabad
f5,5,f,Fry & Grill,3.9/5 Stars,2:00 PM, 11:59 pm,"45X- 101  Susan road, Madina town  Near life pharmacy, 38000 Faisalabad",31.42627094,73.12282325,https://images.deliveryhero.io/image/fd-pk/LH/mz4v-hero.jpg,Faisalabad
f6,6,f,Jalandhar Fish & BBQ,4.1/5 Stars,11:00 AM, 11:59 pm,"P-33 Regal Road, Jhang Bazar Faisalabad, 38000 Faisalabad",31.41687482,73.07636516,https://images.deliveryhero.io/image/fd-pk/LH/w0pp-hero.jpg,Faisalabad
f7,7,f,Hafiz G Murgh Pulao,4/5 Stars,10:30 AM, 8:00 pm,"Main sargodha road, opp MTM Mills Near Meezan Bank wali gali Faisalabad, 38000 Faisalabad",31.4394815,73.0902256,https://images.deliveryhero.io/image/fd-pk/LH/u3di-hero.jpg,Faisalabad
f8,8,f,Chashni Cafe - Saddar RWP,4.2/5 Stars,9:00 AM, 10:59 pm,"Shop # 5/2 & 5/2-A, Harding Road, Saddar, Rawalpindi, 46000 Rawalpindi",33.5960371,73.0484051,https://images.deliveryhero.io/image/fd-pk/LH/q788-hero.jpg,Faisalabad
f9,9,f,Domino's Pizza - G11,4.3/5 Stars,12:00 AM, 11:59 pm,"(Trusted partner), 74004 Islamabad",32.9251389,72.7947778,https://images.deliveryhero.io/image/fd-pk/LH/s8op-hero.jpg,Faisalabad
f12,12,f,Pizza Lavia,3.7/5 Stars,2:15 PM, 11:59 pm,"Ripple Ln, Block C People's Colony No 1, Faisalabad, Punjab, Pakistan, 38000 Faisalabad",31.4117438,73.1126899,https://images.deliveryhero.io/image/fd-pk/LH/kd2y-hero.jpg,Faisalabad
f13,13,f,The Merry Kitchen,3.8/5 Stars,3:00 PM, 3:15 pm,"Main Susan Road Ahmed Balochi Street Madina Town Faisalabad, 38000 Faisalabad",31.42602747,73.12041234,https://images.deliveryhero.io/image/fd-pk/LH/ole3-hero.jpg,Faisalabad
f14,14,f,Kamran Sweets & Bakers,3.9/5 Stars,9:00 AM, 10:00 pm,"Saleemi Chowk, Near Rex city, Jhal Main Satiana Road, 38000 Faisalabad",31.40831158,73.09804033,https://images.deliveryhero.io/image/fd-pk/LH/ld07-hero.jpg,Faisalabad
f15,15,f,Latte e te - kohinoor,4.2/5 Stars,12:00 PM, 11:59 pm,"Mall 2 Mezzanine Floor P-6 Koh e Noor City Faisalabad, 38000 Faisalabad",31.4130803,73.1161126,https://images.deliveryhero.io/image/fd-pk/LH/lzer-hero.jpg,Faisalabad
f16,16,f,Badar Bakery - Boulevard Mall,3.8/5 Stars,12:00 PM, 11:00 pm,"2nd floor food court, Bolevard Mall, Canal Road, 38000 Faisalabad",31.4311712,73.1230919,https://images.deliveryhero.io/image/fd-pk/LH/e5fg-hero.jpg,Faisalabad
f17,17,f,Cock N Bull - Faisalabad,3.4/5 Stars,7:00 PM, 11:59 pm,"PSO Pump D Ground Faisalabad, 38000 Faisalabad",31.4098748,73.10831615,https://images.deliveryhero.io/image/fd-pk/LH/t5rg-hero.jpg,Faisalabad
f18,18,f,Mian Foods - Dground,3.9/5 Stars,8:00 AM, 9:59 pm,"Opp Chacha Samosa, Dground, Faisalabad, 38000 Faisalabad",31.4079433,73.10774665,https://images.deliveryhero.io/image/fd-pk/LH/v5fl-hero.jpg,Faisalabad
f23,23,f,Almaida Pizza Garden - (Welcome Chowk),3.9/5 Stars,11:00 AM, 11:59 pm,"Main welcome chowk, bahawalpur., 63100 Bahawalpur",30.199284,71.449798,https://images.deliveryhero.io/image/fd-pk/LH/asxi-hero.jpg,Faisalabad
f24,24,f,Fayyaz Karachi Biryani,3.9/5 Stars,3:00 PM, 3:15 pm,"Raja Rd, Gulistan Colony, Faisalabad, Punjab, Pakistan, 38000 Faisalabad",31.4411223,73.1034271,https://images.deliveryhero.io/image/fd-pk/LH/cre8-hero.jpg,Faisalabad
f25,25,f,Peppery Cuisine,4.1/5 Stars,5:30 PM, 11:59 pm,"415-A Tanki Road Peoples Colony No.1 Faisalabad, 38000 Faisalabad",31.414558,73.102013,https://images.deliveryhero.io/image/fd-pk/LH/k3ob-hero.jpg,Faisalabad
f26,26,f,Spicy Bites,4.5/5 Stars,6:30 PM, 11:59 pm,"Sirsyed Town Branch B-Block, Near 212 Flat, Main Road Sirsyed Town Faisalabad, 38000 Faisalabad",31.40710619,73.0757298,https://images.deliveryhero.io/image/fd-pk/LH/pubd-hero.jpg,Faisalabad
f27,27,f,God Father - Kohinoor city,4.1/5 Stars,1:30 PM, 11:59 pm,"Near to salt'n Pepper ,Kohinoor City ,Faisalabad, 38000 Faisalabad",31.413151,73.115536,https://images.deliveryhero.io/image/fd-pk/LH/t7er-hero.jpg,Faisalabad
f28,28,f,Original Chicken Broast,4/5 Stars,2:00 PM, 11:59 pm,"Mall 2 Basement Kohinoor City Faisalabad, 38000 Faisalabad",31.41306915,73.11630013,https://images.deliveryhero.io/image/fd-pk/LH/xn5u-hero.jpg,Faisalabad
i2,2,i,Nocciola,4.4/5 Stars,12:00 PM, 11:59 pm,"F11, Liberty Square Plaza, Shop 7, Plot 27, Islamabad, 44320 Islamabad",33.7215278,73.0512778,https://images.deliveryhero.io/image/fd-pk/LH/s7pm-hero.jpg,Islamabad
i3,3,i,Gulshan's Cuisine,3.6/5 Stars,12:00 PM, 10:00 pm,"House 19 Street 124 G 13/4, islamabad, 44000 Islamabad",33.6482227,72.9687094,https://images.deliveryhero.io/image/fd-pk/LH/verp-hero.jpg,Islamabad
i4,4,i,Austin's Pizzas,4.2/5 Stars,1:00 PM, 9:59 pm,"Shop #3, Street 124, G-13/4 Islamabad, Pakistan, 44000 Islamabad",33.6693034,73.00036045,https://images.deliveryhero.io/image/fd-pk/LH/n7sd-hero.jpg,Islamabad
i5,5,i,Ping Pong,4.1/5 Stars,12:30 PM, 11:59 pm,"Shop no 2 , 1st floor , Plot no 2d ,  Ali market F11/1 , Near Ali Murtaaza Masjid,   Islamabad, 44000 Islamabad",33.6775852,72.9863511,https://images.deliveryhero.io/image/fd-pk/LH/w8uv-hero.jpg,Islamabad
i6,6,i,Pizza Wala,4.1/5 Stars,1:00 PM, 11:59 pm,"Shop 11, Lower Ground Floor Al Hameed Plaza, G-11, 44000 Islamabad",33.66997,72.99943,https://images.deliveryhero.io/image/fd-pk/LH/n6dy-hero.jpg,Islamabad
i7,7,i,Cafe Round II,4/5 Stars,3:30 PM, 11:59 pm,"Shop # 15, Ground Floor, Bizzon Plaza, F-11 Markaz, Islamabad, 45710 Islamabad",33.6833811,72.9877888,https://images.deliveryhero.io/image/fd-pk/LH/a6ep-hero.jpg,Islamabad
i8,8,i,Desi Tarka,3.6/5 Stars,10:00 AM, 11:45 pm,"Street no 26A, House no 126, Ground Floor near Abdullah Heights, Islamabad, Pakistan., 44000 Islamabad",33.696906,72.9811648,https://images.deliveryhero.io/image/fd-pk/LH/ew7q-hero.jpg,Islamabad
i11,11,i,Aik Bihari,3.7/5 Stars,12:00 PM, 11:59 pm,"Shop 20-21 Al-Ghaffar mall G-11 Markaz, 44000 Islamabad",33.66845,72.9987112,https://images.deliveryhero.io/image/fd-pk/LH/syth-hero.jpg,Islamabad
i12,12,i,Desi Baithak,4.1/5 Stars,12:00 PM, 10:00 pm,"Basement hall, wilayat market, Street # 169, Sector G13/3 Islamabad, 44000 Islamabad",33.6570933,72.967293,https://images.deliveryhero.io/image/fd-pk/LH/qm1f-hero.jpg,Islamabad
i13,13,i,Asian hut (URAN),4.8/5 Stars,2:45 PM, 8:30 pm,"flat no.8, 4th floor, Street no.26B, Hamid Apartment, E11/4, Islamabad, 44000 Islamabad",33.6971875,72.9797284,https://images.deliveryhero.io/image/fd-pk/LH/vjkt-hero.jpg,Islamabad
i14,14,i,Granny's Tandoori,3.9/5 Stars,1:00 PM, 10:00 pm,"Shop 7,8 qadri arcade street 108 g13/1, 44000 Islamabad",33.645531,72.96434,https://images.deliveryhero.io/image/fd-pk/LH/n9mm-hero.jpg,Islamabad
i15,15,i,Lokal Eatout F-11,4.2/5 Stars,12:00 PM, 11:59 pm,"Adjacent to Baramda,F-11 Markaz,Isb, 44000 Islamabad",33.685064,72.988326,https://images.deliveryhero.io/image/fd-pk/LH/t9xa-hero.jpg,Islamabad
i16,16,i,Pizza Click,3.5/5 Stars,3:00 PM, 3:15 pm,"Sccon hill plaza ground floor shop 1, E 11/2 E-11, Islamabad, Islamabad Capital Territory, Pakistan, 44000 Islamabad",33.7012809,72.96839615,https://images.deliveryhero.io/image/fd-pk/LH/c3sv-hero.jpg,Islamabad
i17,17,i,What a Deal,3.6/5 Stars,2:30 PM, 11:59 pm,"Location alghaffar mall shop no 48, 44000 Islamabad",33.66846945,72.99857195,https://images.deliveryhero.io/image/fd-pk/LH/m1pj-hero.jpg,Islamabad
i18,18,i,ONE BITE BURGER & JUICES,3.7/5 Stars,12:30 PM, 11:59 pm,"onebiteburgerjuices@gmail.com Shop No.09, Lower Ground-Al-Gaffar Mall, Markaz G-11, Islamabad, 44000, 44000 Islamabad",33.6687661,72.9980676,https://images.deliveryhero.io/image/fd-pk/LH/it3v-hero.jpg,Islamabad
i19,19,i,Nawab Foods,3.6/5 Stars,1:00 PM, 11:59 pm,"house no 311, street no, 74 G 11/2 Isb., 44000 Islamabad",33.669053,72.992457,https://images.deliveryhero.io/image/fd-pk/LH/o0fs-hero.jpg,Islamabad
i20,20,i,Lahori Chaska Refreshment & Plao Kabab,3.9/5 Stars,10:00 AM, 11:59 pm,"Shop 1-2, Plaza no. 15, Ground Floor, near Lahori Chaska Restaurant, E-11/3 Markaz, 44000 Islamabad",33.704094,72.9793415,https://images.deliveryhero.io/image/fd-pk/LH/b6rb-hero.jpg,Islamabad
i21,21,i,Hot & Spicy Chinese Cuisine G-11,4.5/5 Stars,2:00 PM, 11:30 pm,"Basement Shop number 9 Near Ali Baba Foods G-11 Markaz., 44000 Islamabad",33.66943,72.9990475,https://images.deliveryhero.io/image/fd-pk/LH/auyj-hero.jpg,Islamabad
i22,22,i,Concepts Bakery,4.1/5 Stars,10:00 AM, 11:59 pm,"Main Service Road Near Marquees, E-11/4, Islamabad, 44000 Islamabad",33.6990846,72.98603435,https://images.deliveryhero.io/image/fd-pk/LH/v8tf-hero.jpg,Islamabad
i23,23,i,PURBAASH,4.3/5 Stars,12:00 PM, 11:59 pm,"Shop 13 alrehmat plaza g11 markaz islamabad, 44000 Islamabad",33.6693611,73.0000833,https://images.deliveryhero.io/image/fd-pk/LH/cdua-hero.jpg,Islamabad
i24,24,i,Elif Burger,3.6/5 Stars,6:00 PM, 11:59 pm,"Street 22, G-11/1 G 11/1 G-11, Islamabad, Islamabad Capital Territory, 44000 Islamabad",33.6646346,72.99012185,https://images.deliveryhero.io/image/fd-pk/LH/anaj-hero.jpg,Islamabad
i25,25,i,The Midnight Pizza,4.1/5 Stars,2:00 PM, 11:59 pm,"Shop 16, First Floor, Liberty Square Plaza, Hilal Road, F11 Markaz, Islamabad, 44000 Islamabad",33.6840903,72.9863288,https://images.deliveryhero.io/image/fd-pk/LH/lfk2-hero.jpg,Islamabad
i26,26,i,Sally's,4.4/5 Stars,12:00 PM, 11:59 pm,"1st Floor, Liberty Square, F-11 Markaz, Islamabad, 44000 Islamabad",33.6842091,72.9862172,https://images.deliveryhero.io/image/fd-pk/LH/pa1l-hero.jpg,Islamabad
i27,27,i,Colava,4.6/5 Stars,4:00 PM, 11:00 pm,"E-11/3 Markaz in front of Najeeb Pharmacy, 44000 Islamabad",33.7030294,72.9791472,https://images.deliveryhero.io/image/fd-pk/LH/j1w8-hero.jpg,Islamabad
i28,28,i,Flavored Moments,4.1/5 Stars,12:00 PM, 11:59 pm,"E-11/2, Fatima Arcade, near Domino's Pizza, 44000 Islamabad",33.70038495,72.97356377,https://images.deliveryhero.io/image/fd-pk/LH/swlo-hero.jpg,Islamabad
i30,30,i,Foodhut,4.6/5 Stars,2:45 PM, 8:30 pm,"E-11/4, St.No 26, Hamid Apartments, Flat No.8, 4th Floor, Islamabad, 46000 Islamabad",33.697524,72.980223,https://images.deliveryhero.io/image/fd-pk/LH/v6ai-hero.jpg,Islamabad
i31,31,i,Lahori Baba Chaska B.B.Q,3.3/5 Stars,12:30 PM, 11:59 pm,"Shop no14 shareef plaza near Marwat restaurant G11 Markaz, 44000 Islamabad",33.66893746,72.99828794,https://images.deliveryhero.io/image/fd-pk/LH/lv02-hero.jpg,Islamabad
i33,33,i,Quetta Tea Point,4.4/5 Stars,9:00 AM, 11:59 pm,"shop 7 , fazal arcade, near shaheen chemist , F11 markaz isb, 44000 Islamabad",33.6834167,72.9886944,https://images.deliveryhero.io/image/fd-pk/LH/cj01-hero.jpg,Islamabad
i35,35,i,No Way Restaurant,3.9/5 Stars,12:00 PM, 11:59 pm,"Ground floor Malik arcade e 11/2 Markaz Islamabad, 44000 Islamabad",33.700263,72.973268,https://images.deliveryhero.io/image/fd-pk/LH/l1mi-hero.jpg,Islamabad
i36,36,i,Desi Beats BreakFast 24/7,3.9/5 Stars,10:00 AM, 11:59 pm,"shop A6, Al Mustafa Arcade Opposite Apollo Towers NPF Street # 15, E-11/4 Islamabad, 44000 Islamabad",33.6969712,72.9816261,https://images.deliveryhero.io/image/fd-pk/LH/o0jp-hero.jpg,Islamabad
i37,37,i,Biryani Ghar,4.1/5 Stars,12:00 PM, 11:59 pm,"House No#820, Street 51,Sector G-11/2, Islamabad, 44000 Islamabad",33.671086,72.987068,https://images.deliveryhero.io/image/fd-pk/LH/n6zd-hero.jpg,Islamabad
i38,38,i,Second Cup Coffee Company - Jinnah Park,4.2/5 Stars,9:00 AM, 11:59 pm,"Jinnah Park, Airport Rd, near Police Lines, Chaklala Cantt., Rawalpindi, 46000 Rawalpindi",33.58605846,73.07410813,https://images.deliveryhero.io/image/fd-pk/LH/a9md-hero.jpg,Islamabad
i39,39,i,Fresh Sip,2.7/5 Stars,12:00 PM, 10:00 pm,"Shop No. 4, Ground Floor, Horizon Plaza, Street No. 49, Mughal Market, Sector G-13/2. Islamabad, 44000 Islamabad",33.651355,72.9528105,https://images.deliveryhero.io/image/fd-pk/LH/f3j0-hero.jpg,Islamabad
i40,40,i,Sizzle Smoke,3.4/5 Stars,1:00 PM, 10:00 pm,"House No 20, Street No 114, G-13/1, Islamabad, 46000 Islamabad",33.6470582,72.962826,https://images.deliveryhero.io/image/fd-pk/LH/prsx-hero.jpg,Islamabad
i42,42,i,Shandez,3.6/5 Stars,12:00 PM, 10:59 pm,"E-11/4, Main Margalla Road, near Aura Grand Enclave, Shandez Restaurant, 44000 Islamabad",33.6931064,72.9861514,https://images.deliveryhero.io/image/fd-pk/LH/o5dv-hero.jpg,Islamabad
i43,43,i,Imtiaz food,3.8/5 Stars,12:00 PM, 10:00 pm,"G-112 jaffer chowk, 44000 Islamabad",33.67097649,72.98543488,https://images.deliveryhero.io/image/fd-pk/LH/xb1k-hero.jpg,Islamabad
i44,44,i,Kunna Sarai Restaurant,4/5 Stars,1:00 PM, 7:00 pm,"Shop no. 2, Ground Floor, Khursheed Market, F-10/1, Islamabad, 44000 Islamabad",33.6865894,73.005462,https://images.deliveryhero.io/image/fd-pk/LH/k2hf-hero.jpg,Islamabad
i45,45,i,GoodBite Kitchen,4.2/5 Stars,12:00 PM, 11:59 pm,"Puran Arcade Apartment Fb-08 (First basement), Puran Arcade, E11/2, Islamabad, 44000 Islamabad",33.6995113,72.9729928,https://images.deliveryhero.io/image/fd-pk/LH/pyat-hero.jpg,Islamabad
i47,47,i,Karachi 2 Night BBQ,3.8/5 Stars,12:00 PM, 11:59 pm,"Shop no 18 near Marwat Restaurant, G-11 Markaz, 44000 Islamabad",33.6690714,72.9983094,https://images.deliveryhero.io/image/fd-pk/LH/u3ez-hero.jpg,Islamabad
i48,48,i,city ice land,4.1/5 Stars,11:00 AM, 11:59 pm,"Plot # 34, Shop No. 16 & 17, Ground Floor Al Rehman Mall, G-11 Markaz Islamabad, Pakistan, 46000 Islamabad",33.6691257,73.0001522,https://images.deliveryhero.io/image/fd-pk/LH/y54u-hero.jpg,Islamabad
i49,49,i,TBC- F-11,4.5/5 Stars,1:00 PM, 11:30 pm,"lower ground, hassan arcade, next to d. Watson., f-11 markaz islamabad, 44000 Islamabad",33.6832611,72.9893925,https://images.deliveryhero.io/image/fd-pk/LH/j556-hero.jpg,Islamabad
i50,50,i,Basar's Kitchen,3.8/5 Stars,5:30 PM, 6:45 pm,"House No 163, Street No 77 High Street, E-11/2, Islamabad, 44000 Islamabad",33.701535,72.970336,https://images.deliveryhero.io/image/fd-pk/LH/v8ku-hero.jpg,Islamabad
i51,51,i,Rewayat,4.2/5 Stars,12:00 PM, 11:45 pm,"Shop no. 16, 17, Ground Floor, Al Hameed Shopping Mall, G-11 Markaz, Islamabad, 44000 Islamabad",33.66985321,72.99958038,https://images.deliveryhero.io/image/fd-pk/LH/s9ky-hero.jpg,Islamabad
i54,54,i,Wok Stop,4.4/5 Stars,1:00 PM, 11:59 pm,"E-11/2 Markaz, Ittefaq Heights, Next to JS Bank, Islamabad, 44000 Islamabad",33.699478,72.974365,https://images.deliveryhero.io/image/fd-pk/LH/v2sr-hero.jpg,Islamabad
i55,55,i,Rice & Spice Foodie Moments,5/5 Stars,12:00 PM, 8:59 pm,"E-11/2 gull plaza shop no 12, Islamabad, Islamabad Capital Territory, 44000 Islamabad",33.6996972,72.9738598,https://images.deliveryhero.io/image/fd-pk/LH/bpzg-hero.jpg,Islamabad
i56,56,i,Food Mania,4.1/5 Stars,10:00 AM, 10:00 pm,"Zahid market, Near Mosque loharawali, E-11/4, 44000 Islamabad",33.6969054,72.97919615,https://images.deliveryhero.io/image/fd-pk/LH/jtcd-hero.jpg,Islamabad
i57,57,i,Grand Islamabad Hotel,3.7/5 Stars,10:00 AM, 11:59 pm,"Square 11, MPCHS, E11/1, Islamabad, 44000 Islamabad",33.695522,72.969269,https://images.deliveryhero.io/image/fd-pk/LH/u6er-hero.jpg,Islamabad
i59,59,i,Asian Kitchen,4.3/5 Stars,11:00 AM, 11:59 pm,"Shop No.03, Lower Ground Floor, Fatima Arcade Sector E-11/2, 44000 Islamabad",33.700333,72.973501,https://images.deliveryhero.io/image/fd-pk/LH/v3sb-hero.jpg,Islamabad
i60,60,i,BURGER PORT,4/5 Stars,12:00 PM, 11:59 pm,"Shop No B-60 Lower Ground Silver City Plaza, Opposite, G-11 Park, G-11 Markaz, Islamabad, 44000 Islamabad",33.6681944,72.9967222,https://images.deliveryhero.io/image/fd-pk/LH/h6cc-hero.jpg,Islamabad
i62,62,i,Taste Cuisine,4.2/5 Stars,11:00 AM, 11:59 pm,"House no. 781, Street no. 49, G-11/2, Islamabad, 44000 Islamabad",33.6718095,72.988224,https://images.deliveryhero.io/image/fd-pk/LH/ik22-hero.jpg,Islamabad
i63,63,i,Urban Air Cafe,4/5 Stars,3:00 PM, 11:59 pm,"E-11/2 market, near M Store, islamabad, 44000 Islamabad",33.69986658,72.97355605,https://images.deliveryhero.io/image/fd-pk/LH/m6hn-hero.jpg,Islamabad
i64,64,i,New Yorker Pizza - Pia Housing Scheme,4/5 Stars,10:00 AM, 11:59 pm,"Plot 409,Block E,Main boulevard pia employee Cooperative housing Society Lahore, 54000 Lahore",31.446323,74.280373,https://images.deliveryhero.io/image/fd-pk/LH/u1bd-hero.jpg,Islamabad
i65,65,i,North Asian Kitchen,4.1/5 Stars,9:15 PM, 11:59 pm,"Capital Compound Shop no.9 2nd floor E 11 Golra Islamabad, 44000 Islamabad",33.691446,72.9789628,https://images.deliveryhero.io/image/fd-pk/LH/unzx-hero.jpg,Islamabad
i66,66,i,China Express,4.4/5 Stars,12:00 PM, 11:59 pm,"Shop #6 lower ground imprial square sectorE-11/2 Markaz islamabad, 44000 Islamabad",33.69994,72.97263,https://images.deliveryhero.io/image/fd-pk/LH/w5jx-hero.jpg,Islamabad
i67,67,i,Wallayati Roti,3.9/5 Stars,2:30 PM, 11:59 pm,"Shop No. 24, Sultan Khan Plaza, Gulshan-e-Khudadad, Sector E-11, Islamabad, 44000 Islamabad",33.6903255,72.9795901,https://images.deliveryhero.io/image/fd-pk/LH/s05x-hero.jpg,Islamabad
i69,69,i,nani jan ka tarka,4.1/5 Stars,12:00 PM, 11:59 pm,"Tariq heights apartment no.403, street 73 , F-11/1 Islamabad, 44000 Islamabad",33.680841,72.9884073,https://images.deliveryhero.io/image/fd-pk/LH/h3ul-hero.jpg,Islamabad
i71,71,i,The Hotdog Station,4.1/5 Stars,10:30 AM, 10:29 pm,"Executive Suites, F-11/1, Hilal Road, Apartment no B-6, Islamabad, 46000 Islamabad",33.68210489,72.99109341,https://images.deliveryhero.io/image/fd-pk/LH/g2uh-hero.jpg,Islamabad
i72,72,i,Infinity Cafe & Restaurant - E11/2,3/5 Stars,1:00 PM, 11:59 pm,"Khushal plaza basement e11/2 markaz islamabad, 44000 Islamabad",33.6996185,72.9737068,https://images.deliveryhero.io/image/fd-pk/LH/tl4w-hero.jpg,Islamabad
i73,73,i,Jessie's- F-11,3.9/5 Stars,2:15 PM, 11:59 pm,"Attock Petrol Pump, F-11, 44000 Islamabad",33.68534521,72.98572744,https://images.deliveryhero.io/image/fd-pk/LH/uvy4-hero.jpg,Islamabad
i74,74,i,Special Lahori Nashta & Naan Center,4.3/5 Stars,9:00 AM, 4:00 pm,"E eleven markaz main double road royal plaza in front of boom boom hot and spicy near waseem shanwari islambad, 44000 Islamabad",33.69915749,72.97400737,https://images.deliveryhero.io/image/fd-pk/LH/oc2z-hero.jpg,Islamabad
i75,75,i,Hangover Cafe- E11,3.9/5 Stars,12:00 PM, 11:44 pm,"Ground floor, Grand Islamabad Hotel, street#1, E-11/1, MPCHS, Islamabad, 44000 Islamabad",33.69492009,72.96972328,https://images.deliveryhero.io/image/fd-pk/LH/gcp3-hero.jpg,Islamabad
i76,76,i,Islamabad Ka Khanay,3.8/5 Stars,10:00 AM, 11:00 pm,"H#735,First Floor Ibnesina Road, G11/2, 44000 Islamabad",33.6722694,72.9884708,https://images.deliveryhero.io/image/fd-pk/LH/n4vh-hero.jpg,Islamabad
i77,77,i,Dr Refreshment Centre,3.5/5 Stars,10:00 AM, 11:59 pm,"Main Margalla Road Capital Residencia E11/4 Islamabad., 44000 Islamabad",33.6935263,72.9838704,https://images.deliveryhero.io/image/fd-pk/LH/iw45-hero.jpg,Islamabad
i78,78,i,Food Mood Eleven,4/5 Stars,12:00 PM, 11:59 pm,"SCHS, E-11/2, near Turkiye pizza, 44000 Islamabad",33.7004581,72.9734308,https://images.deliveryhero.io/image/fd-pk/LH/v6ug-hero.jpg,Islamabad
i79,79,i,The Mafia's Lounge,3.5/5 Stars,1:00 PM, 11:59 pm,"Sector E-11/3, Street 63, Main Markaz near Jamil Sweets, Usmania Towers Shop no. 1B and 8B, 44000 Islamabad",33.7041946,72.9801313,https://images.deliveryhero.io/image/fd-pk/LH/j4cv-hero.jpg,Islamabad
i80,80,i,Bread n Cakes - G11,3.9/5 Stars,1:00 PM, 7:00 pm,"Bread n Cakes Near High Choice Cash n Carry Beside Allied Bank G-11 Markaz, Islamabad, 44000 Islamabad",33.6692,72.99851,https://images.deliveryhero.io/image/fd-pk/LH/w3mx-hero.jpg,Islamabad
i81,81,i,Queen's Tasty Kitchen,4.4/5 Stars,10:00 AM, 10:00 pm,"E11-4 street 15, house above chitral photo state NEAR Quran Academy, Alfalah Manzil Trust, 44000 Islamabad",33.6968587,72.9792213,https://images.deliveryhero.io/image/fd-pk/LH/asg9-hero.jpg,Islamabad
i82,82,i,Quetta Darbar,3.5/5 Stars,12:00 PM, 11:59 pm,"FATIMA ARCADE, Street 45 Fatima Arcade Shop #1,Basement Fatima arcade,near Food mood 11,SCHS E 11 Islamabad, 43600 Islamabad",33.70053,72.9734082,https://images.deliveryhero.io/image/fd-pk/LH/g5bs-hero.jpg,Islamabad
i86,86,i,Signature Chef,3.5/5 Stars,10:00 AM, 11:00 pm,"House#735, First Floor, Ibn-e-sina Road, G11/2, 44000 Islamabad",33.6722694,72.9884708,https://images.deliveryhero.io/image/fd-pk/LH/l9hk-hero.jpg,Islamabad
i87,87,i,BurgerHood,4/5 Stars,2:00 PM, 11:59 pm,"Alghaffar mall basement G-11 Markaz Islamabad Islamabad-44000 islamabad Pakistan, 44000 Islamabad",33.668639,72.99846803,https://images.deliveryhero.io/image/fd-pk/LH/z9my-hero.jpg,Islamabad
i89,89,i,Yummy foods,5/5 Stars,12:30 PM, 11:45 pm,"Ground floor#1, Block C-10, PHA flats, street 97,G-11/3, 44000 Islamabad",33.6729955,72.9980421,https://images.deliveryhero.io/image/fd-pk/LH/y4kc-hero.jpg,Islamabad
i91,91,i,Italian Pizza-F11,3.9/5 Stars,12:45 PM, 11:59 pm,"Location F-11 Markaz, near Optp Select, Center Plaza, 44000 Islamabad",33.6847016,72.9864538,https://images.deliveryhero.io/image/fd-pk/LH/r6qv-hero.jpg,Islamabad
i93,93,i,The Coffee Bean & Tea Leaf - DHA PHASE 5,4.3/5 Stars,9:00 AM, 11:59 pm,"20 A, Pakistan Chowk, Commercial Area, DHA Phase 5, Lahore, 54810 Lahore",31.461479,74.423539,https://images.deliveryhero.io/image/fd-pk/LH/t2zh-hero.jpg,Islamabad
i94,94,i,Italian Pizza G13,4.3/5 Stars,12:00 PM, 11:59 pm,"G13/1 street no. 108 Qadri arcade plaza shop no. 3, 44000 Islamabad",33.64543,72.96414,https://images.deliveryhero.io/image/fd-pk/LH/n4bk-hero.jpg,Islamabad
i95,95,i,Toast'D Cafe & Bakery- F-11,4.3/5 Stars,10:00 AM, 11:59 pm,"Capital Filling Station,Hilal Road, F-11 Markaz, Islamabad, 44000 Islamabad",33.682782,72.990587,https://images.deliveryhero.io/image/fd-pk/LH/k5bw-hero.jpg,Islamabad
i96,96,i,Jeekas Wok And Grill,4.2/5 Stars,3:00 PM, 3:14 pm,"Mj's Plaza  Tariq Market, F-10/2 Islamabad, 44000 Islamabad",33.69070873,72.9999202,https://images.deliveryhero.io/image/fd-pk/LH/h9uo-hero.jpg,Islamabad
i97,97,i,Pizza Factor 21,3.8/5 Stars,1:00 PM, 11:59 pm,"Shop 2, Ghaffer Plaza, E-11/2, Markaz, 44000 Islamabad",33.70008456,72.97285442,https://images.deliveryhero.io/image/fd-pk/LH/f8a4-hero.jpg,Islamabad
i98,98,i,Food fresh the best G-11,4.1/5 Stars,11:30 AM, 11:59 pm,"2 Street 72, G-11/2 G 11/2 G-11, near Reshama Masjid Islamabad, Islamabad Capital Territory 44000, 44000 Islamabad",33.6704698,72.9909444,https://images.deliveryhero.io/image/fd-pk/LH/hfnm-hero.jpg,Islamabad
i99,99,i,Midnight Kitchen,4.3/5 Stars,9:00 PM, 9:15 pm,"House#136 street#8 E-11/1 mpchs islamabad, 44000 Islamabad",33.6941807,72.9702511,https://images.deliveryhero.io/image/fd-pk/LH/moxr-hero.jpg,Islamabad
i100,100,i,Fri'soO,4.1/5 Stars,12:00 PM, 11:59 pm,"RAS ARCADE, STREET NUM 124, G-13/4 ISLAMABAD, 44000 Islamabad",33.6475845,72.9670507,https://images.deliveryhero.io/image/fd-pk/LH/taaf-hero.jpg,Islamabad
i101,101,i,Sarang Sindhi Cuisine,4.2/5 Stars,12:00 PM, 11:59 pm,"Basement Fazal Arcade, Near Shaheen Chemist, F 11, Markaz, Islamabad, 75400 Islamabad",33.6834259,72.98873901,https://images.deliveryhero.io/image/fd-pk/LH/s8fi-hero.jpg,Islamabad
i102,102,i,Bannu Gull Restaurant,4.2/5 Stars,9:00 AM, 11:45 pm,"shop number 5,Al anayat palaza,G-11 markaz islamabad., 44000 Islamabad",33.668013,72.997302,https://images.deliveryhero.io/image/fd-pk/LH/t7oh-hero.jpg,Islamabad
i103,103,i,Arabian's Chef Restaurant,4.1/5 Stars,1:00 PM, 11:59 pm,"Service Road, E-11/4, near Marquees, Islamabad, 44000 Islamabad",33.6956122,72.9892005,https://images.deliveryhero.io/image/fd-pk/LH/j2od-hero.jpg,Islamabad
i104,104,i,Buland Place,3.9/5 Stars,11:30 AM, 11:59 pm,"Shop no. 3, Ground Floor, Black Lounge Plaza,MPCHS, E-11/3 Markaz, 44000 Islamabad",33.7038423,72.9793896,https://images.deliveryhero.io/image/fd-pk/LH/j4o8-hero.jpg,Islamabad
i105,105,i,Dil Se Desi,4.2/5 Stars,12:00 PM, 11:45 pm,"Riwayat restaurant Al hameed shopping mall Near D Watson G-11 markaz islamabad, 44000 Islamabad",33.669923,72.999492,https://images.deliveryhero.io/image/fd-pk/LH/w7xp-hero.jpg,Islamabad
i108,108,i,Mom's Kitchen,4.5/5 Stars,10:00 AM, 3:00 pm,"Alharam apartments, Flate D2, 4th Floor , Street 26-A, E11/4, 44000 Islamabad",33.6972112,72.97983506,https://images.deliveryhero.io/image/fd-pk/LH/n1sb-hero.jpg,Islamabad
i110,110,i,Farzana's Kitchen,4.1/5 Stars,10:00 AM, 10:00 pm,"E - 114,Street 15, Zahid market, Next to Abdul wahod karyana store., 44000 Islamabad",33.6968923,72.97917725,https://images.deliveryhero.io/image/fd-pk/LH/zu0m-hero.jpg,Islamabad
i111,111,i,Wassi Kitchen,4.2/5 Stars,10:00 AM, 10:00 pm,"E-11/4, street#15, Zahid market, Near Mosque loharawali , Islamabad, 44000 Islamabad",33.6968938,72.97910485,https://images.deliveryhero.io/image/fd-pk/LH/kuin-hero.jpg,Islamabad
i113,113,i,Bon AppÃ©tit,4.7/5 Stars,1:00 PM, 7:45 pm,"house # 343 street 166 g11/1 NEAR Masjid Abu Sufyan, Islamabad, 44000 Islamabad",33.6655402,72.9987589,https://images.deliveryhero.io/image/fd-pk/LH/x8nh-hero.jpg,Islamabad
i114,114,i,K's Cremerie,4.4/5 Stars,12:00 PM, 11:59 pm,"Shop no. 7, Plot 27, near Nocciola, Liberty Square, F-11 Markaz Islamabad, 44000 Islamabad",33.684155,72.986322,https://images.deliveryhero.io/image/fd-pk/LH/v8zz-hero.jpg,Islamabad
i115,115,i,Biryani Adda,4.1/5 Stars,12:00 PM, 11:59 pm,"Shop # 3 St # 14 Tariq Market F10/2 Islamabad, 44000 Islamabad",33.6909488,72.9978603,https://images.deliveryhero.io/image/fd-pk/LH/w0by-hero.jpg,Islamabad
i116,116,i,Margalla Desi Aroma,4.4/5 Stars,10:30 AM, 11:59 pm,"Shop no 9 2nd floor capital  compound golrha islamabad ., 44000 Islamabad",33.691446,72.9789628,https://images.deliveryhero.io/image/fd-pk/LH/xoh1-hero.jpg,Islamabad
i118,118,i,American Express Pizza,4.1/5 Stars,12:00 PM, 11:59 pm,"California EXPRESS PIZZA, NEAR Soneri BANK LIBERTY MARKET F-11, 44000 Islamabad",33.6842805,72.9864325,https://images.deliveryhero.io/image/fd-pk/LH/b8lh-hero.jpg,Islamabad
i119,119,i,Lahori Chaska Ziaqa Restaurant & Biryani Center,4/5 Stars,10:00 AM, 11:59 pm,"Shop no, 1-2, Plaza no. 15, near Tooba Masjid,, E-11/3 Markaz, 44000 Islamabad",33.704087,72.979287,https://images.deliveryhero.io/image/fd-pk/LH/p6sb-hero.jpg,Islamabad
i120,120,i,Smokin Joeâ€™s Pizza - E 11,3.9/5 Stars,12:00 PM, 11:59 pm,"Madina arcade ground floor e-11 3 markaz near MCB Islamabad, 75500 Islamabad",33.703597,72.97885,https://images.deliveryhero.io/image/fd-pk/LH/s7tb-hero.jpg,Islamabad
i122,122,i,Qasim Burger Point,4.4/5 Stars,11:00 AM, 11:59 pm,"Shahnawaz plaza near ameen pharmacy g11 markaz, 44000 Islamabad",33.66917277,72.9971743,https://images.deliveryhero.io/image/fd-pk/LH/n2ub-hero.jpg,Islamabad
i123,123,i,Boom Boom Hot N Spicy E-11,4.1/5 Stars,12:00 PM, 11:59 pm,"Basment Royal Plaza, Main Double Road, E-11/2, 44000 Islamabad",33.699043,72.973637,https://images.deliveryhero.io/image/fd-pk/LH/u2qr-hero.jpg,Islamabad
i125,125,i,The Yemeni Shawarma,3.9/5 Stars,4:00 PM, 11:59 pm,"House no. 138A, Street 37, F10/1, Islamabad, 44000 Islamabad",33.687556,73.001833,https://images.deliveryhero.io/image/fd-pk/LH/v7ez-hero.jpg,Islamabad
k0,0,k,Pizza Arbish,4.4/5 Stars,3:30 PM, 11:59 pm,"3-1, Sector 51 5c1 North Karachi, Bara Market., 71500 Karachi",24.98934706,67.05781807,https://images.deliveryhero.io/image/fd-pk/LH/vj7o-hero.jpg,Karachi
k3,3,k,Xoro's Burgers & Pizza,4.1/5 Stars,6:00 PM, 11:59 pm,"Shop 28 Sec 14/A Orangi Town Akbar Chok Near Bashani Sweet, Karachi, 75800 Karachi",24.95646355,66.9960261,https://images.deliveryhero.io/image/fd-pk/LH/gv77-hero.jpg,Karachi
k5,5,k,Ehsaan foods,3.6/5 Stars,10:00 AM, 11:59 pm,"house no 19/5 sector 5E, north karachi, 75290 Karachi",24.9876404,67.0705763,https://images.deliveryhero.io/image/fd-pk/LH/beb7-hero.jpg,Karachi
k7,7,k,Aiza & Ayan kitchen,4.2/5 Stars,8:00 AM, 9:00 pm,"Jama masjid Muhammad sector7-A bilal colony near ajmair nagri pso petrol pump, 72400 Karachi",24.9831107,67.0515467,https://images.deliveryhero.io/image/fd-pk/LH/ubn3-hero.jpg,Karachi
k11,11,k,MR CONE BIRYANI (Surjani Town),3/5 Stars,12:00 PM, 11:59 pm,"Surjani Town KDA Flat d 53 Karachi, 75850 Karachi",25.0190669,67.0632373,https://images.deliveryhero.io/image/fd-pk/LH/ktqu-hero.jpg,Karachi
k13,13,k,Chai Samosa,4.4/5 Stars,2:00 PM, 11:59 pm,"R -97 sector 10 north karachi, 75850 Karachi",24.96792855,67.0557599,https://images.deliveryhero.io/image/fd-pk/LH/w9yj-hero.jpg,Karachi
k15,15,k,Burger Bar,3.1/5 Stars,6:30 PM, 11:59 pm,"Sector 11 C 1 North Karachi Twp, Karachi, Karachi City, Sindh, 00000 Karachi",24.9719972,67.0648538,https://images.deliveryhero.io/image/fd-pk/LH/e5t8-hero.jpg,Karachi
k17,17,k,Manpasand Bakers,4.2/5 Stars,9:00 AM, 11:59 pm,"Manpasand Bakers, plot # 461, sector 8, near baradari stop furqania masjid, North Karachi., 75850 Karachi",24.9794484,67.0554642,https://images.deliveryhero.io/image/fd-pk/LH/gh8v-hero.jpg,Karachi
k19,19,k,Mukhtarya Famous Behari Kabab,3.5/5 Stars,1:00 PM, 6:59 pm,"Shop#40 sector 15 A orangi town main bangla bazar, Karachi, 75800 Karachi",24.95300071,66.99940458,https://images.deliveryhero.io/image/fd-pk/LH/d6to-hero.jpg,Karachi
k21,21,k,Biryani corner and pakwan centre,3.4/5 Stars,4:00 PM, 4:15 pm,"Shop#2 Yasmeen heights power house chowrangi , near K-electric office  , North Karachi, 75850 Karachi",24.9857682,67.0617867,https://images.deliveryhero.io/image/fd-pk/LH/y4ov-hero.jpg,Karachi
k23,23,k,Herky Fast Food,4.3/5 Stars,3:00 PM, 3:15 pm,"Shop#A/576 sector 11-b north karachi, 75850 Karachi",24.9721004,67.0572075,https://images.deliveryhero.io/image/fd-pk/LH/w7ti-hero.jpg,Karachi
k25,25,k,Sheikhchllies Fast Food Pizza & Pizza Fries,3/5 Stars,5:00 PM, 11:59 pm,"Rihab arcade sector 5 j new Karachi, 75850 Karachi",25.0001692,67.0723656,https://images.deliveryhero.io/image/fd-pk/LH/vbdj-hero.jpg,Karachi
k27,27,k,Pizza Choice,3.4/5 Stars,5:00 PM, 11:59 pm,"Shop no 1  imam barga karwan.e.hyderi sector 11-D new karachi near Sunday car bazar, 75850 Karachi",24.9841875,67.0750625,https://images.deliveryhero.io/image/fd-pk/LH/xee1-hero.jpg,Karachi
k29,29,k,Royal Bistro,3.9/5 Stars,6:00 PM, 11:59 pm,"Shop G13 KDA Flat Shadmaan #2, North Nazimabad Town, Karachi, 74600 Karachi",25.0026875,67.0548125,https://images.deliveryhero.io/image/fd-pk/LH/w7tr-hero.jpg,Karachi
k30,30,k,Islam Food Centre,3.9/5 Stars,4:00 PM, 11:59 pm,"St 14 North Karachi Sector 10, Al Rauf Corners., 75950 Karachi",24.9652262,67.0562766,https://images.deliveryhero.io/image/fd-pk/LH/u7gj-hero.jpg,Karachi
k31,31,k,SANA BBQ AND FAST FOOD,3.6/5 Stars,8:00 PM, 11:59 pm,"Shop no 16 ST.13 Sector 5.c.2 Bilal town north karachi, 75850 Karachi",24.9895625,67.0616875,https://images.deliveryhero.io/image/fd-pk/LH/mnl0-hero.jpg,Karachi
k32,32,k,Chef Bilal Pakwan Centre,4/5 Stars,1:00 PM, 4:00 pm,"Sector 5 B 3 New Karachi Town, Karachi, Karachi City, Sindh, 75850 Karachi",24.9934275,67.0572712,https://images.deliveryhero.io/image/fd-pk/LH/azte-hero.jpg,Karachi
k33,33,k,Burger 99,3.9/5 Stars,4:15 PM, 11:59 pm,"R-713 sector 9 North Karachi, 74600 Karachi",24.9727491,67.0544091,https://images.deliveryhero.io/image/fd-pk/LH/v3tt-hero.jpg,Karachi
k34,34,k,AL MAKKAH FAST FOOD,3.8/5 Stars,7:00 PM, 11:59 pm,"Shop no B 2/3 BAITUL ANUM apartment sec 5k North karachi, 75850 Karachi",24.99077983,67.06587737,https://images.deliveryhero.io/image/fd-pk/LH/wepc-hero.jpg,Karachi
k35,35,k,WRSA Food Point,3.7/5 Stars,9:00 AM, 9:00 pm,"House #A-474 Is sector 14B Shadman town 2 North Nazimabad Karachi Near Shadman masjid Opposite  oxford school, 75850 Karachi",24.96288785,67.05803227,https://images.deliveryhero.io/image/fd-pk/LH/wrei-hero.jpg,Karachi
l0,0,l,Cray Wings,4.3/5 Stars,12:00 PM, 11:00 pm,"28/A, Block S, Gulberg 2, 54000 Lahore",31.5203039,74.3574346,https://images.deliveryhero.io/image/fd-pk/LH/ocn7-hero.jpg,Lahore
l1,1,l,Junoon Restaurant - Gulberg,3/5 Stars,12:00 PM, 11:59 pm,"Plot-1, Block C1 C-1 Gulberg III, Lahore, 54000 Lahore",31.5171831,74.3511044,https://images.deliveryhero.io/image/fd-pk/LH/wfte-hero.jpg,Lahore
l2,2,l,Wrap Kitchen,4.4/5 Stars,9:00 AM, 11:59 pm,"House no. E-60/5 (2nd floor) Street no. 2, Shaheen Colony, walton road, Lahore Cantt., 54782 Lahore",31.4873889,74.3635278,https://images.deliveryhero.io/image/fd-pk/LH/xbfh-hero.jpg,Lahore
l3,3,l,Mommy's kitchen,4.1/5 Stars,11:00 AM, 11:59 pm,"Shaeen Colony nashter street Lahore Cantt Munawwar general store., 54000 Lahore",31.4883066,74.36514155,https://images.deliveryhero.io/image/fd-pk/LH/c6yr-hero.jpg,Lahore
l4,4,l,Capri Food Point,4/5 Stars,10:30 AM, 3:00 pm,"House No. E-73/2, Street No. 1, Gulbahar Colony Lahore Cantt, 35461 Lahore",31.4975833,74.3597778,https://images.deliveryhero.io/image/fd-pk/LH/ahph-hero.jpg,Lahore
l5,5,l,Kabbabish,3.9/5 Stars,9:00 AM, 11:59 pm,"E 9A Ali view park near bedian road Lahore cantt, 54000 Lahore",31.495603,74.39994505,https://images.deliveryhero.io/image/fd-pk/LH/r2vt-hero.jpg,Lahore
l6,6,l,Second Scoop,3.6/5 Stars,2:00 PM, 11:30 pm,"Street 12, Iqbal Park, Lahore, 54000 Lahore",31.486916,74.381139,https://images.deliveryhero.io/image/fd-pk/LH/w3zo-hero.jpg,Lahore
l7,7,l,Ahmad Dahi Bhalla & Fast Food,4/5 Stars,2:00 PM, 11:59 pm,"Link Tufail Road, RA Bazaar, near Pakistan Post RA Bazaar, R A Bazaar Cantt, Lahore, 54000 Lahore",31.50523541,74.38243992,https://images.deliveryhero.io/image/fd-pk/LH/k1rv-hero.jpg,Lahore
l8,8,l,Farzanas Kitchenette,3.9/5 Stars,2:00 PM, 11:59 pm,"House no 1393 street no 16 Makkah colony Gulberg 3 lahore.near games point, 54000 Lahore",31.49516045,74.35646835,https://images.deliveryhero.io/image/fd-pk/LH/r0kt-hero.jpg,Lahore
l9,9,l,Tasty Yakhni Pulao & Koozi Haleem,3.9/5 Stars,9:00 AM, 11:00 pm,"3 Gulberg Rd, Millat Colony, Lahore, Punjab, 54000 Lahore",31.5276744,74.3600144,https://images.deliveryhero.io/image/fd-pk/LH/nshv-hero.jpg,Lahore
l10,10,l,FOODERA,3.5/5 Stars,4:00 PM, 11:59 pm,"Street Number 10, Akram Park Block A 2 Gulberg III, Lahore, Punjab 54000, 54000 Lahore",31.5125494,74.356375,https://images.deliveryhero.io/image/fd-pk/LH/rb0e-hero.jpg,Lahore
l11,11,l,Pepe's Piri Piri - F-6,4.2/5 Stars,12:00 PM, 11:59 pm,"Shop 8B, super market, F-6 Markaz F 6 Markaz F-6, Islamabad, 44000 Islamabad",33.7299347,73.0778035,https://images.deliveryhero.io/image/fd-pk/LH/e3yl-hero.jpg,Lahore
l12,12,l,Biryani Jaani,3.8/5 Stars,12:00 PM, 11:30 pm,"Address: 28/A, Block S, Gulberg 2, Lahore, 54000 Lahore",31.5203039,74.3574346,https://images.deliveryhero.io/image/fd-pk/LH/vrq0-hero.jpg,Lahore
l13,13,l,Tasty Takes,4.1/5 Stars,12:00 PM, 10:00 pm,"Liberty Market Gulberg III, Lahore, Punjab, 54000 Lahore",31.5105672,74.346008,https://images.deliveryhero.io/image/fd-pk/LH/q0ed-hero.jpg,Lahore
l14,14,l,AL-AHMED DAHI BHALAY,3.7/5 Stars,12:00 PM, 11:59 pm,"Street Number 7, Zaman Colony, Lahore, Punjab, 54000 Lahore",31.49510379,74.36971218,https://images.deliveryhero.io/image/fd-pk/LH/zndj-hero.jpg,Lahore
l15,15,l,Potato Fatato,3/5 Stars,5:30 PM, 11:59 pm,"Outside Best Buy Store, Cavalry Ground, 54000 Lahore",31.49910215,74.3670658,https://images.deliveryhero.io/image/fd-pk/LH/silg-hero.jpg,Lahore
l16,16,l,Lasani Tikka,4.3/5 Stars,6:00 PM, 11:59 pm,"Shop No 62-A2 Rizwan Masjid Gala Market Gulberg 3, 54000 Lahore",31.512379,74.354772,https://images.deliveryhero.io/image/fd-pk/LH/v1zk-hero.jpg,Lahore
l17,17,l,Hafiz BBQ & Biryani,4.1/5 Stars,6:00 PM, 11:59 pm,"ghous e azam bazar gulberg 2, 54000 Lahore",31.5276569,74.3599941,https://images.deliveryhero.io/image/fd-pk/LH/i7zr-hero.jpg,Lahore
l18,18,l,Royal Kitchen,4.2/5 Stars,10:00 AM, 11:59 pm,"house # E154 oblick # 7A steer #07 Yasrab Colony bank stop Walton Road Lahore Cantt, 54000 Lahore",31.48781135,74.3694234,https://images.deliveryhero.io/image/fd-pk/LH/vrdx-hero.jpg,Lahore
l19,19,l,Food Land,3.5/5 Stars,7:00 PM, 11:59 pm,"Walton Road Near Defence Mor Madina Milk shop, 54000 Lahore",31.493927,74.372824,https://images.deliveryhero.io/image/fd-pk/LH/n2rm-hero.jpg,Lahore
r1,1,r,Da Sizzling Bites,4.1/5 Stars,12:00 PM, 11:00 pm,"Tulsa Rd, Lalazar, 46000 Rawalpindi",33.5674368,73.0511251,https://images.deliveryhero.io/image/fd-pk/LH/bsjw-hero.jpg,Rawalpindi
r2,2,r,Haleem House and Karachi Biryani,3.8/5 Stars,11:45 AM, 11:30 pm,"Main commercial market opposite of Hot & Spicy Restaurant ChaklalaØŒ Chaklala Scheme 3 Chaklala Housing Scheme 3, Rawalpindi, Punjab 46000, Pakistan, 46000 Rawalpindi",33.5850307,73.0899903,https://images.deliveryhero.io/image/fd-pk/LH/idj9-hero.jpg,Rawalpindi
r3,3,r,SMACK 21 PIZZA,4/5 Stars,10:00 AM, 11:59 pm,"Shop No 6, First floor, Panorama Center, Lalkurti, 46000 Rawalpindi",33.5817404,73.0600664,https://images.deliveryhero.io/image/fd-pk/LH/z6je-hero.jpg,Rawalpindi
r4,4,r,Mexican Chinese Corner,3.7/5 Stars,1:00 PM, 11:59 pm,"Bilal Mughal plaza Range Road near Nawaz lane Rawalpindi, 46000 Rawalpindi",33.5983137,73.0173072,https://images.deliveryhero.io/image/fd-pk/LH/d2as-hero.jpg,Rawalpindi
r6,6,r,Wania's Cuisine,4.3/5 Stars,9:00 AM, 11:59 pm,"HOUSE#284, ST 25, BLOCK D PWD, 46000 Rawalpindi",33.6138371,73.0084266,https://images.deliveryhero.io/image/fd-pk/LH/se4d-hero.jpg,Rawalpindi
r7,7,r,BBQ King & Refreshments,3.6/5 Stars,11:00 AM, 11:59 pm,"BBQ King and Refreshments, 60-A, Bank Road, Saddar, 46000 Rawalpindi",33.59474475,73.05404055,https://images.deliveryhero.io/image/fd-pk/LH/nqw1-hero.jpg,Rawalpindi
r8,8,r,Italian Pizza - Askari XI,3.9/5 Stars,12:15 PM, 11:59 pm,"Log Welfare, Askari 11, Near Qasim Market,Rawalpindi, 46000 Rawalpindi",33.5978471,73.02960783,https://images.deliveryhero.io/image/fd-pk/LH/z9tr-hero.jpg,Rawalpindi
r9,9,r,AJ's (The Premium Cuisine) - Jinnah Park,3.8/5 Stars,12:00 PM, 11:59 pm,"Jinnah Park, Near Kacheri, Rawalpindi, 46000 Rawalpindi",33.586027,73.073613,https://images.deliveryhero.io/image/fd-pk/LH/nhqb-hero.jpg,Rawalpindi
r10,10,r,Aapi's Kitchen,1/5 Stars,1:00 PM, 11:59 pm,"house# 1291/1, street #. 15, Abbas street, ShalleyValley, Rawalpindi, 46000 Rawalpindi",33.5947192,73.0135695,https://images.deliveryhero.io/image/fd-pk/LH/thjr-hero.jpg,Rawalpindi
r11,11,r,Fatima's Kitchen,4.2/5 Stars,10:00 AM, 11:59 pm,"House No CB-1265 Fawaz Lane, Al Farooq Street, Shalley Valley Saddar Rawalpindi, 44000 Rawalpindi",33.594718,73.015266,https://images.deliveryhero.io/image/fd-pk/LH/w0ya-hero.jpg,Rawalpindi
r12,12,r,JIK JIK CHINESE RESTAURANT,4/5 Stars,12:00 PM, 11:59 pm,"342 B, Block A Police Foundation,  Opp shafi hospital main pwd road , islamabad, 44000 Islamabad",33.565682,73.129955,https://images.deliveryhero.io/image/fd-pk/LH/g0nr-hero.jpg,Rawalpindi
r13,13,r,Heartee's Fast Food,3.9/5 Stars,10:00 AM, 11:59 pm,"Heartees Fast Food, AFIC Hospital, Mall Road, Saddar, Rawalpindi, 46000 Rawalpindi",33.5964536,73.045342,https://images.deliveryhero.io/image/fd-pk/LH/v8ei-hero.jpg,Rawalpindi
r14,14,r,SAS Nutritional Food Services,3.6/5 Stars,10:15 AM, 10:45 pm,"4th Floor, Hearts International Hospital, Opposite Pearl Continental Hotel, Saddar, Rawalpindi, 46000 Rawalpindi",33.5894693,73.0592911,https://images.deliveryhero.io/image/fd-pk/LH/nyxk-hero.jpg,Rawalpindi
r15,15,r,7 Spices Restaurant & Takeaway,3.1/5 Stars,10:00 AM, 10:00 pm,"34-A, Al-amin Plaza,Opp Military Hospital ,The Mall Saddar Rawalpindi, 46000 Rawalpindi",33.59691,73.04681,https://images.deliveryhero.io/image/fd-pk/LH/u2zw-hero.jpg,Rawalpindi
r17,17,r,GYRO,3.6/5 Stars,7:00 PM, 11:30 pm,"GYRO, Westridge Shopping Complex, Westridge 1, Unit #06 /Street 5, Westridge 1, Rawalpindi, Punjab 46000, 46000 Rawalpindi",33.6111592,73.0231711,https://images.deliveryhero.io/image/fd-pk/LH/r3fm-hero.jpg,Rawalpindi
r19,19,r,Syed's Kitchen,3.4/5 Stars,9:00 AM, 11:59 pm,"House Of Syed Mustafa Ali, Millat Abad, Dhoke Banaras,Near Hira School, Rawalpindi, 44000 Rawalpindi",33.5931977,73.016685,https://images.deliveryhero.io/image/fd-pk/LH/jw15-hero.jpg,Rawalpindi
r20,20,r,Bismillah Cream Fruit chat,3.4/5 Stars,3:00 PM, 11:00 pm,"Mohalla Raja Sultan,  Mohalla Raja Sultan Shop #1 opposite Kashmir milk shop Mohalla raja sultan rawalpindi, 00000 Rawalpindi",33.63359265,73.05929396,https://images.deliveryhero.io/image/fd-pk/LH/f101-hero.jpg,Rawalpindi
r21,21,r,Codessa,3.7/5 Stars,12:15 PM, 10:45 pm,"Westridge Shopping Complex ,Near CSD, 46000 Rawalpindi",33.610888,73.023794,https://images.deliveryhero.io/image/fd-pk/LH/u5dz-hero.jpg,Rawalpindi
r22,22,r,Amna's Kitchen,3.5/5 Stars,12:00 PM, 11:00 pm,"H# 953, St# 7 Azizabad Abid Majeed Road Rawalpindi Cantt, near tehkhana masjid, 46000 Rawalpindi",33.5844848,73.0297891,https://images.deliveryhero.io/image/fd-pk/LH/eg9h-hero.jpg,Rawalpindi
r23,23,r,KITCHEN POINT,4.2/5 Stars,10:45 AM, 11:59 pm,"P-1566-C,  Asghar Mall Scheme, Near Allah wali Market, Rawalpindi, 46000 Rawalpindi",33.6313688,73.0660412,https://images.deliveryhero.io/image/fd-pk/LH/xe5m-hero.jpg,Rawalpindi
r24,24,r,Maa G Restaurant,3.6/5 Stars,10:00 AM, 11:00 pm,"House No#297 Lane No#5 Near Umer Farooq Masjid Peshawar Road Rawalpindi, 46000 Rawalpindi",33.600425,73.014655,https://images.deliveryhero.io/image/fd-pk/LH/u7sn-hero.jpg,Rawalpindi
r25,25,r,Gujranwala Food Point,3.8/5 Stars,9:00 AM, 3:00 pm,"Holy Family Road Muhalla Raja Sultan Gujranwala Food Point in front of Kashmir Milk Shop, Rawalpindi, 46000 Rawalpindi",33.63364275,73.05926595,https://images.deliveryhero.io/image/fd-pk/LH/nqqh-hero.jpg,Rawalpindi
r26,26,r,Eat Time,4.1/5 Stars,10:15 AM, 11:59 pm,"Plot 14B/10, Near Good Luck Bakery, Mohalla Angat Pura, Asghar Mall, Rawalpindi, 46000 Rawalpindi",33.6276617,73.0602981,https://images.deliveryhero.io/image/fd-pk/LH/d9sd-hero.jpg,Rawalpindi
r27,27,r,Lahori Refreshment & Fast Food,3.5/5 Stars,10:30 AM, 11:59 pm,"Main Bank Road Opp.National Bank Saddar Rawalpindi, 46000 Rawalpindi",33.596773,73.050894,https://images.deliveryhero.io/image/fd-pk/LH/u4lk-hero.jpg,Rawalpindi
r28,28,r,Mr. Jolly,3.9/5 Stars,3:00 PM, 11:00 pm,"House no 9, St no 6A, Hill view lane, Adiala road, Rawalpindi, 44000 Rawalpindi",33.5472786,73.058771,https://images.deliveryhero.io/image/fd-pk/LH/x0zj-hero.jpg,Rawalpindi
r29,29,r,The House of Pastas,4/5 Stars,12:30 PM, 10:00 pm,"House no. 245/c R.A Bazaar  F.G Boys School R.A Bazzar Saddar Rawalpindi, 44000 Rawalpindi",33.58926895,73.04426776,https://images.deliveryhero.io/image/fd-pk/LH/a1kz-hero.jpg,Rawalpindi
r30,30,r,Pizza Crunch,4/5 Stars,12:30 PM, 11:59 pm,"Shop # G1 , Ittehad Plaza, Range Road, Rawalpindi, 46000 Rawalpindi",33.6005726,73.0081332,https://images.deliveryhero.io/image/fd-pk/LH/xybi-hero.jpg,Rawalpindi
r34,34,r,Frenzos Broast,4.2/5 Stars,6:15 PM, 11:00 pm,"Shop #1 Jan Plaza Aibak road near silk bank westridge Rawalpindi cantt, 46000 Rawalpindi",33.6091111,73.0220556,https://images.deliveryhero.io/image/fd-pk/LH/x5vv-hero.jpg,Rawalpindi
r35,35,r,Biryani Master - Saddar,4.1/5 Stars,3:00 PM, 3:15 pm,"Haider Rd, 54-G, Near GPO, Saddar, Rawalpindi, 46000 Rawalpindi",33.59511705,73.05185883,https://images.deliveryhero.io/image/fd-pk/LH/rn3e-hero.jpg,Rawalpindi
r36,36,r,International Pizza - Qasim Market,4/5 Stars,12:15 PM, 11:59 pm,"Log Welfare, Askari 11, Near Qasim Market,Rawalpindi, 46000 Rawalpindi",33.5990235,73.0488316,https://images.deliveryhero.io/image/fd-pk/LH/j0mn-hero.jpg,Rawalpindi
r37,37,r,UK Burgers,3.8/5 Stars,2:15 PM, 11:59 pm,"DHOKE ELAHI BAKSH GRAVEYARD,  Dhoke Elahi Baksh Graveyard Shop3 Umer rd,Hassan market dhoke ilahe baksh(al khizria floor mill), 44000 Rawalpindi",33.6107663,73.0669892,https://images.deliveryhero.io/image/fd-pk/LH/hzr1-hero.jpg,Rawalpindi
r39,39,r,City Murgh Pulao,3.7/5 Stars,12:00 PM, 11:00 pm,"Main Baraf Khana Chowk, Misrial Road, 46000 Rawalpindi",33.5834914,73.0169093,https://images.deliveryhero.io/image/fd-pk/LH/mxzs-hero.jpg,Rawalpindi
r40,40,r,Desi Kitchen Wilayti Foods,3.5/5 Stars,12:00 PM, 11:59 pm,"House no78 street no3 race course road rawalpindi, 46000 Rawalpindi",33.606285,73.028321,https://images.deliveryhero.io/image/fd-pk/LH/w0jy-hero.jpg,Rawalpindi
r41,41,r,Banni foodies,4.2/5 Stars,6:00 PM, 11:59 pm,"BANNI MOBILE & CDS MARKET, Saidpur Road Banni Mobile & Cds Market mirza plaza, opp chingchi stop poultry market banni saidpur road, 44000 Rawalpindi",33.6222127,73.0619996,https://images.deliveryhero.io/image/fd-pk/LH/o4jm-hero.jpg,Rawalpindi
r42,42,r,HU PIZZERIA,3.7/5 Stars,10:00 AM, 11:59 pm,"Main Masrial Road, Ali Shopping Mall, Opposite Mukaram Town, 46000 Rawalpindi",33.6019757,73.0024957,https://images.deliveryhero.io/image/fd-pk/LH/mq7w-hero.jpg,Rawalpindi
r43,43,r,Blue Hut,3.8/5 Stars,12:00 PM, 11:59 pm,"House no. O/1102-A, Mohallah kartarpura, rawalpind near Allah Rakha Hotel, 44000 Rawalpindi",33.62532066,73.06453152,https://images.deliveryhero.io/image/fd-pk/LH/e0at-hero.jpg,Rawalpindi
r44,44,r,Qasr-e-namkeen - Murree Road,3.9/5 Stars,2:00 PM, 11:59 pm,"I/340 Murree Rd, Waris Khan Rawalpindi, 46000 Rawalpindi",33.61599,73.06517,https://images.deliveryhero.io/image/fd-pk/LH/n4uu-hero.jpg,Rawalpindi
r45,45,r,Karachi Biryani Center,5/5 Stars,11:00 AM, 11:59 pm,"Shop No. P-1095, Asghar Mall Chowk, Rawalpindi, 46000 Rawalpindi",33.6280885,73.0620657,https://images.deliveryhero.io/image/fd-pk/LH/lbpp-hero.jpg,Rawalpindi
r46,46,r,The Tummy Ticklers,3.2/5 Stars,3:00 PM, 3:15 pm,"The Tummy Ticklers Askari 1 CHAKLALA SCHEME III Rawalpindi, 46000 Rawalpindi",33.5802417,73.0882777,https://images.deliveryhero.io/image/fd-pk/LH/hpu7-hero.jpg,Rawalpindi
r47,47,r,Cheesy Krysto,3.7/5 Stars,12:00 PM, 8:00 pm,"Rania Mall Food Court Bank Road Saddar Rawalpindi, 46000 Rawalpindi",33.5954474,73.0533107,https://images.deliveryhero.io/image/fd-pk/LH/y2w1-hero.jpg,Rawalpindi
r48,48,r,Lalazar Hotel and Murgh Pulao,3.3/5 Stars,12:00 PM, 11:00 pm,"Shop # 1, Rajgan Plaza, Sherzaman market, Tulsa Road lalazar, 46000 Rawalpindi",33.565494,73.04532105,https://images.deliveryhero.io/image/fd-pk/LH/d19x-hero.jpg,Rawalpindi
r49,49,r,Rooster Pizzeria,3.5/5 Stars,12:00 PM, 11:59 pm,"Dhoke Hassu,  Dhoke Hassu zb 188/E chota choke near al sattar medical store uc 6 rawalpindi, 63000 Rawalpindi",33.6263256,73.0307824,https://images.deliveryhero.io/image/fd-pk/LH/pnta-hero.jpg,Rawalpindi
r50,50,r,Biya's Cuisine,4.2/5 Stars,1:00 PM, 11:59 pm,"House no. 1291/1, Street no # 15, Abbas Street, Shalley Valley, Rawalpindi, 46000 Rawalpindi",33.59475563,73.01360922,https://images.deliveryhero.io/image/fd-pk/LH/hvr4-hero.jpg,Rawalpindi
r51,51,r,Chicken Base,3.8/5 Stars,3:00 PM, 3:15 pm,"Shop no 8, 9, 10 Ch Shareef Plaza, Misrial Road, Dhoke Syedan Chowk, Rawalpindi, 46000 Rawalpindi",33.5806572,73.0220967,https://images.deliveryhero.io/image/fd-pk/LH/w8ek-hero.jpg,Rawalpindi
r52,52,r,Rooftop Baithak Cafe,3.6/5 Stars,4:00 PM, 11:59 pm,"AHMED PLAZA, Range Road Ahmed Plaza Near farid family hospital., 43600 Rawalpindi",33.59812265,73.0229854,https://images.deliveryhero.io/image/fd-pk/LH/rm18-hero.jpg,Rawalpindi
r53,53,r,Pak-Kashmir Bakers,2.6/5 Stars,10:00 AM, 11:59 pm,"Agfshan colony, sadaat market road, Sadaat Market, Rawalpindi cantt, 46000 Rawalpindi",33.5943828,73.021829,https://images.deliveryhero.io/image/fd-pk/LH/i4yo-hero.jpg,Rawalpindi
r54,54,r,Kashmiri Kitchen,4.3/5 Stars,10:00 AM, 11:59 pm,"177/A, saidpur road new phagwari near commerce college, rawalpindi, 46000 Rawalpindi",33.632755,73.054369,https://images.deliveryhero.io/image/fd-pk/LH/n1aw-hero.jpg,Rawalpindi
r55,55,r,Brothers Food,3.8/5 Stars,3:00 PM, 11:59 pm,"pirwadai bokra road, awan chowk rawalpindi infront of jan super store rawalpindi, 46000 Rawalpindi",33.6289173,73.04010305,https://images.deliveryhero.io/image/fd-pk/LH/pjyt-hero.jpg,Rawalpindi
r56,56,r,Karachi BBQ,3.3/5 Stars,4:00 PM, 11:59 pm,"Ibrahim Nagar, Rawalpindi, Punjab 46000, 44000 Rawalpindi",33.6073274,73.05247835,https://images.deliveryhero.io/image/fd-pk/LH/obm9-hero.jpg,Rawalpindi
r57,57,r,Musa Restaurant,3/5 Stars,2:00 PM, 10:00 pm,"House no 875 street 20 near zulfiqar store Alama Iqbal colony tench bhatta Rawalpindi, 46000 Rawalpindi",33.5848937,73.0237401,https://images.deliveryhero.io/image/fd-pk/LH/ucza-hero.jpg,Rawalpindi
r59,59,r,Dough with the Flow- F-10,4.4/5 Stars,9:00 AM, 11:59 pm,"F-10 Markaz, D-Watson near Bakewell, 44000 Islamabad",33.69641444,73.01302093,https://images.deliveryhero.io/image/fd-pk/LH/m5og-hero.jpg,Rawalpindi
r60,60,r,Sufi Naan Center,4/5 Stars,9:00 AM, 9:30 pm,"Shop No. P-1269, Kartarpura Food Street, Rawalpindi, 46000 Rawalpindi",33.6230701,73.062496,https://images.deliveryhero.io/image/fd-pk/LH/h6jz-hero.jpg,Rawalpindi
r61,61,r,Gyro Home Chef,4.2/5 Stars,2:00 PM, 11:59 pm,", street no 14  Dhoke Banaras millat abbad Rawalpindi, 46000 Rawalpindi",33.59371975,73.0142123,https://images.deliveryhero.io/image/fd-pk/LH/l2v9-hero.jpg,Rawalpindi
r62,62,r,Khan Refreshment,4.2/5 Stars,1:00 PM, 11:59 pm,"Muhamdi Chwok near ghafoor bakers, 46000 Rawalpindi",33.6297126,73.0499983,https://images.deliveryhero.io/image/fd-pk/LH/j365-hero.jpg,Rawalpindi
r63,63,r,Albarkat Restaurant,4.2/5 Stars,9:00 AM, 11:59 pm,"Riaz Plaza, Near Bilal Masjid, Main Road Pirwadhai rawalpindi, 46060 Rawalpindi",33.63197305,73.03797185,https://images.deliveryhero.io/image/fd-pk/LH/t7od-hero.jpg,Rawalpindi
r65,65,r,Italian Pizza - Scheme 3,3.8/5 Stars,1:30 PM, 11:59 pm,"Shop No.1, Khawaja Tower, Imran Khan Avenue Scheme 3, Rawalpindi, 46000 Rawalpindi",33.5863845,73.0884478,https://images.deliveryhero.io/image/fd-pk/LH/m8qt-hero.jpg,Rawalpindi
r67,67,r,Ali Shah Food Point,5/5 Stars,1:00 PM, 11:59 pm,"Backside of Tehzeeb Bakers, Near Bank Al Habib, Saba Plaza Bank Road, rawalpindi, 46000 Rawalpindi",33.5976356,73.0487825,https://images.deliveryhero.io/image/fd-pk/LH/bqa0-hero.jpg,Rawalpindi
r68,68,r,Chaudhary Jee Food and Fries,3.4/5 Stars,3:30 PM, 11:00 pm,"House No 9, Street No 6-A, Hill View Lane, Adiala Road, Rawalpindi, 46000 Rawalpindi",33.5472293,73.05832265,https://images.deliveryhero.io/image/fd-pk/LH/w8qj-hero.jpg,Rawalpindi
r69,69,r,Zuchee's,3.1/5 Stars,12:00 AM, 2:00 am,"Shop# P 212 - P 215, Near Allied Bank, Main Jamia Masjid Road, Rawalpindi, 46000 Rawalpindi",33.6210275,73.0597679,https://images.deliveryhero.io/image/fd-pk/LH/i6oc-hero.jpg,Rawalpindi
r70,70,r,Reja's desi Corner,3.5/5 Stars,1:00 PM, 11:59 pm,"House no 134/11 babu muhallah saddar Rawalpindi, 46000 Rawalpindi",33.5995,73.0533889,https://images.deliveryhero.io/image/fd-pk/LH/p02d-hero.jpg,Rawalpindi
r71,71,r,Karachi Tikka House & Roll Paratha,4.3/5 Stars,4:00 PM, 11:59 pm,"Shop No. P-462, Mohallah Raja Kala Khan, Imambara Road, Pir Chouha Chowk,  Rawalpindi, 46000 Rawalpindi",33.6235411,73.0590491,https://images.deliveryhero.io/image/fd-pk/LH/c776-hero.jpg,Rawalpindi
r73,73,r,Sajjad Pakwan,4/5 Stars,12:00 PM, 11:00 pm,"Abid Majeed Road, Opp Sultan Complex, Rawalpindi, 46000 Rawalpindi",33.58617113,73.0332093,https://images.deliveryhero.io/image/fd-pk/LH/c4kk-hero.jpg,Rawalpindi
r74,74,r,Potato Ones,3.5/5 Stars,2:00 PM, 11:59 pm,"Shop no# 18 Ali shopping Mall Misriyal Road Rawalpindi, 46000 Rawalpindi",33.6018838,73.0024082,https://images.deliveryhero.io/image/fd-pk/LH/v6ql-hero.jpg,Rawalpindi
r75,75,r,Crunchies Fast Food Lalazar,4/5 Stars,12:30 PM, 11:00 pm,"Opposite Pizza Mania Tulsa Road Lalazar Rawalpindi, 46000 Rawalpindi",33.721326,73.057781,https://images.deliveryhero.io/image/fd-pk/LH/u5zr-hero.jpg,Rawalpindi
r76,76,r,Tayyab Pulao Kabab,4.1/5 Stars,1:00 PM, 11:59 pm,"Azeem Plaza, near shell petrol pump, Bostan khan road, Rawalpindi, 46000 Rawalpindi",33.5840244,73.0955691,https://images.deliveryhero.io/image/fd-pk/LH/w2cz-hero.jpg,Rawalpindi
r77,77,r,Second Girlfriend,4/5 Stars,5:45 PM, 11:00 pm,"shop no. 4, khada market, opposite grand pearl marquee adyala road rawalpindi, 46000 Rawalpindi",33.546635,73.0540397,https://images.deliveryhero.io/image/fd-pk/LH/qeoh-hero.jpg,Rawalpindi
r78,78,r,Punjab foods,4.2/5 Stars,11:00 AM, 11:59 pm,"Punjab foods murgh pulao tipu road nazad international bakers, 43600 Rawalpindi",33.6040961,73.0746832,https://images.deliveryhero.io/image/fd-pk/LH/no8w-hero.jpg,Rawalpindi
r79,79,r,Pak Virsa Restaurant,3.9/5 Stars,1:30 PM, 11:00 pm,"1st Floor, Panorama Center, Aziz Bhatti Shaheed Road, Lalkurti, 46000 Rawalpindi",33.5817989,73.05948445,https://images.deliveryhero.io/image/fd-pk/LH/ar97-hero.jpg,Rawalpindi
